NORAD_CAT_ID,OBJECT_NAME,OBJECT_TYPE,EPOCH,MEAN_MOTION,ECCENTRICITY,INCLINATION,RA_OF_ASC_NODE,ARG_OF_PERICENTER,MEAN_ANOMALY,BSTAR,MEAN_MOTION_DOT,MEAN_MOTION_DDOT,TLE_LINE0,TLE_LINE1,TLE_LINE2,SEMIMAJOR_AXIS,PERIOD,APOGEE,PERIGEE,DECAYED
55936.0,STARLINK-5882,PAYLOAD,2024-08-19 04:56:27,14.98331778,0.0002951,69.9977,255.1201,265.5777,94.5045,-5.4953e-05,-7.49e-06,0.0,0 STARLINK-5882,1 55936U 23037Y   24232.20587102 -.00000749  00000-0 -54953-4 0  9993,2 55936  69.9977 255.1201 0002951 265.5777  94.5045 14.98331778 79812,6950.187,96.107,574.103,570.001,0.0
55936.0,STARLINK-5882,PAYLOAD,2024-08-19 09:44:51,14.98330486,0.0002976,69.9978,254.6152,267.4756,92.6062,-6.7387e-05,-8.97e-06,0.0,0 STARLINK-5882,1 55936U 23037Y   24232.40615205 -.00000897  00000-0 -67387-4 0  9990,2 55936  69.9978 254.6152 0002976 267.4756  92.6062 14.98330486 79506,6950.191,96.107,574.125,569.988,0.0
55936.0,STARLINK-5882,PAYLOAD,2024-08-20 04:58:28,14.98330826,0.0003007,69.9977,252.5947,267.8185,92.263,2.4421e-05,1.98e-06,0.0,0 STARLINK-5882,1 55936U 23037Y   24233.20726866  .00000198  00000-0  24421-4 0  9999,2 55936  69.9977 252.5947 0003007 267.8185  92.2630 14.98330826 79965,6950.19,96.107,574.145,569.965,0.0
55936.0,STARLINK-5882,PAYLOAD,2024-08-20 11:23:00,14.98332369,0.0003011,69.998,251.9219,268.0854,91.996,3.9408e-05,3.77e-06,0.0,0 STARLINK-5882,1 55936U 23037Y   24233.47430717  .00000377  00000-0  39408-4 0  9995,2 55936  69.9980 251.9219 0003011 268.0854  91.9960 14.98332369 79668,6950.186,96.107,574.143,569.958,0.0
55936.0,STARLINK-5882,PAYLOAD,2024-08-21 05:00:29,14.98326656,0.0003045,69.9982,250.0698,268.9748,91.1062,2.5334e-05,2.09e-06,0.0,0 STARLINK-5882,1 55936U 23037Y   24234.20867132  .00000209  00000-0  25334-4 0  9999,2 55936  69.9982 250.0698 0003045 268.9748  91.1062 14.98326656 80118,6950.203,96.107,574.185,569.952,0.0
55936.0,STARLINK-5882,PAYLOAD,2024-08-21 11:25:01,14.98327997,0.0003024,69.9984,249.3967,268.8889,91.1924,3.7905e-05,3.59e-06,0.0,0 STARLINK-5882,1 55936U 23037Y   24234.47571067  .00000359  00000-0  37905-4 0  9990,2 55936  69.9984 249.3967 0003024 268.8889  91.1924 14.98327997 79813,6950.199,96.107,574.166,569.962,0.0
